[{"OBJECT_NAME":"ION SCV-018","OBJECT_ID":"2025-135AZ","EPOCH":"2026-03-09T20:46:52.870080","MEAN_MOTION":14.94433361,"ECCENTRICITY":0.00112281,"INCLINATION":97.7645,"RA_OF_ASC_NODE":184.9218,"ARG_OF_PERICENTER":262.207,"MEAN_ANOMALY":97.7875,"EPHEMERIS_TYPE":0,"CLASSIFICATION_TYPE":"U","NORAD_CAT_ID":64575,"ELEMENT_SET_NO":999,"REV_AT_EPOCH":3909,"BSTAR":0.00019355798,"MEAN_MOTION_DOT":2.03e-5,"MEAN_MOTION_DDOT":0},{"OBJECT_NAME":"ORBCOMM FM01","OBJECT_ID":"1995-017A","EPOCH":"2026-03-09T14:23:39.060960","MEAN_MOTION":14.94627417,"ECCENTRICITY":0.0007397,"INCLINATION":69.9608,"RA_OF_ASC_NODE":130.1442,"ARG_OF_PERICENTER":275.3811,"MEAN_ANOMALY":84.6502,"EPHEMERIS_TYPE":0,"CLASSIFICATION_TYPE":"U","NORAD_CAT_ID":23545,"ELEMENT_SET_NO":999,"REV_AT_EPOCH":65210,"BSTAR":0.00061722,"MEAN_MOTION_DOT":6.616e-5,"MEAN_MOTION_DDOT":0}]
